{"type": "FeatureCollection", "features": [ {"type": "Feature", "properties": {"norad_id": 66569, "name": "STARLINK-35835", "group": "last-30-days", "lat": 41.64219340039174, "lon": -118.24261477597726, "alt_km": 409.70732174215664, "timestamp": "2025-12-10T11:33:52.172371+00:00", "meta": {"OBJECT_NAME": "STARLINK-35835", "OBJECT_ID": "2025-268N", "EPOCH": "2025-12-10T04:00:01.998720", "MEAN_MOTION": 15.50659219, "ECCENTRICITY": 0.0001728, "INCLINATION": 43.0005, "RA_OF_ASC_NODE": 136.1883, "ARG_OF_PERICENTER": 273.7493, "MEAN_ANOMALY": 227.7531, "EPHEMERIS_TYPE": 0, "CLASSIFICATION_TYPE": "U", "NORAD_CAT_ID": 66569, "ELEMENT_SET_NO": 999, "REV_AT_EPOCH": 425, "BSTAR": -0.0031851, "MEAN_MOTION_DOT": -0.00183419, "MEAN_MOTION_DDOT": 0}, "tle": {"line1": "1 66569U 25268N   25344.16668980 -.00183419  00000+0 -31851-2 0  9994", "line2": "2 66569  43.0005 136.1883 0001728 273.7493 227.7531 15.50659219  4250"}}, "geometry": {"type": "Point", "coordinates": [-118.24261477597726, 41.64219340039174]}}, {"type": "Feature", "properties": {"norad_id": 66570, "name": "STARLINK-35834", "group": "last-30-days", "lat": 41.22697645020317, "lon": -115.7677045866867, "alt_km": 409.72625963752034, "timestamp": "2025-12-10T11:33:52.172380+00:00", "meta": {"OBJECT_NAME": "STARLINK-35834", "OBJECT_ID": "2025-268P", "EPOCH": "2025-12-10T04:00:01.998720", "MEAN_MOTION": 15.50593035, "ECCENTRICITY": 0.0001676, "INCLINATION": 43.0007, "RA_OF_ASC_NODE": 136.1831, "ARG_OF_PERICENTER": 271.0116, "MEAN_ANOMALY": 232.4356, "EPHEMERIS_TYPE": 0, "CLASSIFICATION_TYPE": "U", "NORAD_CAT_ID": 66570, "ELEMENT_SET_NO": 999, "REV_AT_EPOCH": 425, "BSTAR": -0.0015525, "MEAN_MOTION_DOT": -0.00090419, "MEAN_MOTION_DDOT": 0}, "tle": {"line1": "1 66570U 25268P   25344.16668980 -.00090419  00000+0 -15525-2 0  9993", "line2": "2 66570  43.0007 136.1831 0001676 271.0116 232.4356 15.50593035  4253"}}, "geometry": {"type": "Point", "coordinates": [-115.7677045866867, 41.22697645020317]}}, {"type": "Feature", "properties": {"norad_id": 66571, "name": "STARLINK-35836", "group": "last-30-days", "lat": 40.75137643265281, "lon": -113.28735592949896, "alt_km": 409.9225018518282, "timestamp": "2025-12-10T11:33:52.172391+00:00", "meta": {"OBJECT_NAME": "STARLINK-35836", "OBJECT_ID": "2025-268Q", "EPOCH": "2025-12-10T04:00:01.998720", "MEAN_MOTION": 15.50626387, "ECCENTRICITY": 0.0001812, "INCLINATION": 43.0008, "RA_OF_ASC_NODE": 136.1785, "ARG_OF_PERICENTER": 266.8439, "MEAN_ANOMALY": 238.5302, "EPHEMERIS_TYPE": 0, "CLASSIFICATION_TYPE": "U", "NORAD_CAT_ID": 66571, "ELEMENT_SET_NO": 999, "REV_AT_EPOCH": 425, "BSTAR": -0.0029751, "MEAN_MOTION_DOT": -0.00171408, "MEAN_MOTION_DDOT": 0}, "tle": {"line1": "1 66571U 25268Q   25344.16668980 -.00171408  00000+0 -29751-2 0  9998", "line2": "2 66571  43.0008 136.1785 0001812 266.8439 238.5302 15.50626387  4250"}}, "geometry": {"type": "Point", "coordinates": [-113.28735592949896, 40.75137643265281]}}, {"type": "Feature", "properties": {"norad_id": 66572, "name": "STARLINK-35870", "group": "last-30-days", "lat": 40.223045376341545, "lon": -110.84462899535484, "alt_km": 409.9986023390338, "timestamp": "2025-12-10T11:33:52.172405+00:00", "meta": {"OBJECT_NAME": "STARLINK-35870", "OBJECT_ID": "2025-268R", "EPOCH": "2025-12-10T04:00:01.998720", "MEAN_MOTION": 15.50640093, "ECCENTRICITY": 0.0001688, "INCLINATION": 43.0004, "RA_OF_ASC_NODE": 136.1747, "ARG_OF_PERICENTER": 273.2806, "MEAN_ANOMALY": 234.024, "EPHEMERIS_TYPE": 0, "CLASSIFICATION_TYPE": "U", "NORAD_CAT_ID": 66572, "ELEMENT_SET_NO": 999, "REV_AT_EPOCH": 425, "BSTAR": -0.0037575, "MEAN_MOTION_DOT": -0.00215302, "MEAN_MOTION_DDOT": 0}, "tle": {"line1": "1 66572U 25268R   25344.16668980 -.00215302  00000+0 -37575-2 0  9994", "line2": "2 66572  43.0004 136.1747 0001688 273.2806 234.0240 15.50640093  4258"}}, "geometry": {"type": "Point", "coordinates": [-110.84462899535484, 40.223045376341545]}}, {"type": "Feature", "properties": {"norad_id": 66573, "name": "STARLINK-35650", "group": "last-30-days", "lat": 39.652429529939496, "lon": -108.47420610071916, "alt_km": 410.4448247137643, "timestamp": "2025-12-10T11:33:52.172415+00:00", "meta": {"OBJECT_NAME": "STARLINK-35650", "OBJECT_ID": "2025-268S", "EPOCH": "2025-12-10T04:00:01.998720", "MEAN_MOTION": 15.50644192, "ECCENTRICITY": 0.0002404, "INCLINATION": 43.0008, "RA_OF_ASC_NODE": 136.1684, "ARG_OF_PERICENTER": 281.0736, "MEAN_ANOMALY": 228.1077, "EPHEMERIS_TYPE": 0, "CLASSIFICATION_TYPE": "U", "NORAD_CAT_ID": 66573, "ELEMENT_SET_NO": 999, "REV_AT_EPOCH": 425, "BSTAR": -0.0025786, "MEAN_MOTION_DOT": -0.00149132, "MEAN_MOTION_DDOT": 0}, "tle": {"line1": "1 66573U 25268S   25344.16668980 -.00149132  00000+0 -25786-2 0  9993", "line2": "2 66573  43.0008 136.1684 0002404 281.0736 228.1077 15.50644192  4255"}}, "geometry": {"type": "Point", "coordinates": [-108.47420610071916, 39.652429529939496]}}, {"type": "Feature", "properties": {"norad_id": 66574, "name": "STARLINK-35812", "group": "last-30-days", "lat": 39.03583136103046, "lon": -106.1515715071232, "alt_km": 410.2732834178405, "timestamp": "2025-12-10T11:33:52.172427+00:00", "meta": {"OBJECT_NAME": "STARLINK-35812", "OBJECT_ID": "2025-268T", "EPOCH": "2025-12-10T04:00:01.998720", "MEAN_MOTION": 15.50637577, "ECCENTRICITY": 0.0002073, "INCLINATION": 43.0005, "RA_OF_ASC_NODE": 136.1632, "ARG_OF_PERICENTER": 272.6791, "MEAN_ANOMALY": 238.4122, "EPHEMERIS_TYPE": 0, "CLASSIFICATION_TYPE": "U", "NORAD_CAT_ID": 66574, "ELEMENT_SET_NO": 999, "REV_AT_EPOCH": 425, "BSTAR": -0.0025058, "MEAN_MOTION_DOT": -0.00144969, "MEAN_MOTION_DDOT": 0}, "tle": {"line1": "1 66574U 25268T   25344.16668980 -.00144969  00000+0 -25058-2 0  9999", "line2": "2 66574  43.0005 136.1632 0002073 272.6791 238.4122 15.50637577  4259"}}, "geometry": {"type": "Point", "coordinates": [-106.1515715071232, 39.03583136103046]}}, {"type": "Feature", "properties": {"norad_id": 66575, "name": "STARLINK-35810", "group": "last-30-days", "lat": 38.36451947706929, "lon": -103.83728036610306, "alt_km": 410.3887001069079, "timestamp": "2025-12-10T11:33:52.172439+00:00", "meta": {"OBJECT_NAME": "STARLINK-35810", "OBJECT_ID": "2025-268U", "EPOCH": "2025-12-10T04:00:01.998720", "MEAN_MOTION": 15.50616127, "ECCENTRICITY": 0.0001992, "INCLINATION": 43.0007, "RA_OF_ASC_NODE": 136.159, "ARG_OF_PERICENTER": 271.5877, "MEAN_ANOMALY": 241.4605, "EPHEMERIS_TYPE": 0, "CLASSIFICATION_TYPE": "U", "NORAD_CAT_ID": 66575, "ELEMENT_SET_NO": 999, "REV_AT_EPOCH": 425, "BSTAR": -0.0027129, "MEAN_MOTION_DOT": -0.00156571, "MEAN_MOTION_DDOT": 0}, "tle": {"line1": "1 66575U 25268U   25344.16668980 -.00156571  00000+0 -27129-2 0  9993", "line2": "2 66575  43.0007 136.1590 0001992 271.5877 241.4605 15.50616127  4255"}}, "geometry": {"type": "Point", "coordinates": [-103.83728036610306, 38.36451947706929]}}, {"type": "Feature", "properties": {"norad_id": 66576, "name": "STARLINK-35814", "group": "last-30-days", "lat": 37.654377633567776, "lon": -101.58759588266315, "alt_km": 410.39792605259754, "timestamp": "2025-12-10T11:33:52.172449+00:00", "meta": {"OBJECT_NAME": "STARLINK-35814", "OBJECT_ID": "2025-268V", "EPOCH": "2025-12-10T04:00:01.998720", "MEAN_MOTION": 15.50616568, "ECCENTRICITY": 0.0002036, "INCLINATION": 43.0004, "RA_OF_ASC_NODE": 136.154, "ARG_OF_PERICENTER": 262.3573, "MEAN_ANOMALY": 252.6037, "EPHEMERIS_TYPE": 0, "CLASSIFICATION_TYPE": "U", "NORAD_CAT_ID": 66576, "ELEMENT_SET_NO": 999, "REV_AT_EPOCH": 425, "BSTAR": -0.0026364, "MEAN_MOTION_DOT": -0.00152251, "MEAN_MOTION_DDOT": 0}, "tle": {"line1": "1 66576U 25268V   25344.16668980 -.00152251  00000+0 -26364-2 0  9995", "line2": "2 66576  43.0004 136.1540 0002036 262.3573 252.6037 15.50616568  4251"}}, "geometry": {"type": "Point", "coordinates": [-101.58759588266315, 37.654377633567776]}}, {"type": "Feature", "properties": {"norad_id": 66577, "name": "STARLINK-35815", "group": "last-30-days", "lat": 36.892934692773146, "lon": -99.35422449920658, "alt_km": 410.5374220709846, "timestamp": "2025-12-10T11:33:52.172461+00:00", "meta": {"OBJECT_NAME": "STARLINK-35815", "OBJECT_ID": "2025-268W", "EPOCH": "2025-12-10T04:00:01.998720", "MEAN_MOTION": 15.50633226, "ECCENTRICITY": 0.000183, "INCLINATION": 43.0005, "RA_OF_ASC_NODE": 136.1494, "ARG_OF_PERICENTER": 271.9877, "MEAN_ANOMALY": 244.9045, "EPHEMERIS_TYPE": 0, "CLASSIFICATION_TYPE": "U", "NORAD_CAT_ID": 66577, "ELEMENT_SET_NO": 999, "REV_AT_EPOCH": 425, "BSTAR": -0.0035682, "MEAN_MOTION_DOT": -0.00204697, "MEAN_MOTION_DDOT": 0}, "tle": {"line1": "1 66577U 25268W   25344.16668980 -.00204697  00000+0 -35682-2 0  9991", "line2": "2 66577  43.0005 136.1494 0001830 271.9877 244.9045 15.50633226  4258"}}, "geometry": {"type": "Point", "coordinates": [-99.35422449920658, 36.892934692773146]}}, {"type": "Feature", "properties": {"norad_id": 66578, "name": "STARLINK-35743", "group": "last-30-days", "lat": 36.09799624341329, "lon": -97.18648286159335, "alt_km": 410.61046213816826, "timestamp": "2025-12-10T11:33:52.172471+00:00", "meta": {"OBJECT_NAME": "STARLINK-35743", "OBJECT_ID": "2025-268X", "EPOCH": "2025-12-10T04:00:01.998720", "MEAN_MOTION": 15.50635197, "ECCENTRICITY": 0.0001814, "INCLINATION": 43.0006, "RA_OF_ASC_NODE": 136.1447, "ARG_OF_PERICENTER": 270.0725, "MEAN_ANOMALY": 248.7349, "EPHEMERIS_TYPE": 0, "CLASSIFICATION_TYPE": "U", "NORAD_CAT_ID": 66578, "ELEMENT_SET_NO": 999, "REV_AT_EPOCH": 425, "BSTAR": -0.0035613, "MEAN_MOTION_DOT": -0.00204328, "MEAN_MOTION_DDOT": 0}, "tle": {"line1": "1 66578U 25268X   25344.16668980 -.00204328  00000+0 -35613-2 0  9997", "line2": "2 66578  43.0006 136.1447 0001814 270.0725 248.7349 15.50635197  4250"}}, "geometry": {"type": "Point", "coordinates": [-97.18648286159335, 36.09799624341329]}}]}